     2.10           GLONASS NAV DATA                        RINEX VERSION / TYPE
RTKCONV demo5 b31                       20190613 050156 UTC PGM / RUN BY / DATE 
log: H:\Data\Colorado\2019-0611\Joe_M600_PPK_Test_20190611  COMMENT             
format: NovAtel OEM6                                        COMMENT             
Josip USGS / Denver                                         COMMENT             
                                                            END OF HEADER       
 4 19  6 11 23 15  0.0  .309786759317E-03  .909494701773E-12  .842400000000E+05
     .106746274414E+05 -.930633544922E-01  .000000000000E+00  .000000000000E+00
    -.688869628906E+04  .302424716949E+01 -.931322574615E-09  .600000000000E+01
     .221443037109E+05  .985283851624E+00 -.279396772385E-08  .000000000000E+00
 5 19  6 11 23 15  0.0  .298749655485E-04  .909494701773E-12  .842400000000E+05
     .600036132812E+04 -.180071830750E+00  .186264514923E-08  .000000000000E+00
    -.217079501953E+05  .163873291016E+01 -.186264514923E-08  .100000000000E+01
     .120106572266E+05  .305413150787E+01 -.186264514923E-08  .000000000000E+00
10 19  6 11 23 15  0.0  .519128516316E-04  .000000000000E+00  .842400000000E+05
    -.216052954102E+05 -.761299133301E-01  .000000000000E+00  .000000000000E+00
    -.134725649414E+05  .178756713867E+00  .186264514923E-08 -.700000000000E+01
    -.233904785156E+03 -.359315204620E+01  .931322574615E-09  .000000000000E+00
11 19  6 11 23 15  0.0 -.691264867783E-04 -.909494701773E-12  .842400000000E+05
    -.191754267578E+05 -.200344467163E+01 -.931322574615E-09  .000000000000E+00
    -.218558496094E+04 -.109358024597E+01  .186264514923E-08  .000000000000E+00
     .166633100586E+05 -.245533275604E+01 -.931322574615E-09  .000000000000E+00
12 19  6 11 23 15  0.0 -.453907996416E-04  .000000000000E+00  .842400000000E+05
    -.811275439453E+04 -.271672439575E+01 -.186264514923E-08  .000000000000E+00
     .776012939453E+04 -.157035160065E+01  .931322574615E-09 -.100000000000E+01
     .229009492188E+05 -.423590660095E+00 -.186264514923E-08  .000000000000E+00
20 19  6 11 23 15  0.0 -.380956567824E-03 -.909494701773E-12  .842400000000E+05
     .252130859375E+04  .265759468079E+01  .000000000000E+00  .000000000000E+00
    -.124620717773E+05 -.146225738525E+01 -.931322574615E-09  .200000000000E+01
     .221253769531E+05 -.112208747864E+01 -.279396772385E-08  .000000000000E+00
21 19  6 11 23 15  0.0 -.534160062671E-04 -.181898940355E-11  .842400000000E+05
    -.152001464844E+05  .250173091888E+01 -.931322574615E-09  .000000000000E+00
    -.222324755859E+04 -.124471282959E+01  .931322574615E-09  .400000000000E+01
     .203667568359E+05  .172885799408E+01 -.931322574615E-09  .000000000000E+00
 6 19  6 11 23 15  0.0  .156084075570E-03  .000000000000E+00  .842700000000E+05
    -.334854101562E+04 -.133478164673E+00  .279396772385E-08  .000000000000E+00
    -.243503022461E+05 -.939089775085E+00 -.931322574615E-09 -.400000000000E+01
    -.686901416016E+04  .339327335358E+01  .931322574615E-09  .000000000000E+00
19 19  6 11 23 15  0.0 -.357823446393E-04 -.181898940355E-11  .842400000000E+05
     .189565751953E+05  .100570011139E+01  .186264514923E-08  .000000000000E+00
    -.144354702148E+05 -.774248123169E+00 -.279396772385E-08  .300000000000E+01
     .910474365234E+04 -.331981849670E+01 -.186264514923E-08  .000000000000E+00
